[{"OBJECT_NAME":"STARLINK-30343","OBJECT_ID":"2023-131X","EPOCH":"2026-03-09T07:59:37.708512","MEAN_MOTION":15.02534143,"ECCENTRICITY":0.00011307,"INCLINATION":43.0041,"RA_OF_ASC_NODE":173.46,"ARG_OF_PERICENTER":258.5463,"MEAN_ANOMALY":101.5252,"EPHEMERIS_TYPE":0,"CLASSIFICATION_TYPE":"U","NORAD_CAT_ID":57753,"ELEMENT_SET_NO":999,"REV_AT_EPOCH":13987,"BSTAR":9.458901e-6,"MEAN_MOTION_DOT":-7.6e-7,"MEAN_MOTION_DDOT":0},{"OBJECT_NAME":"IRIDIUM 33 DEB","OBJECT_ID":"1997-051ABJ","EPOCH":"2026-03-07T11:02:11.153184","MEAN_MOTION":15.04355632,"ECCENTRICITY":0.00105712,"INCLINATION":86.348,"RA_OF_ASC_NODE":321.5871,"ARG_OF_PERICENTER":86.7515,"MEAN_ANOMALY":38.318,"EPHEMERIS_TYPE":0,"CLASSIFICATION_TYPE":"U","NORAD_CAT_ID":40996,"ELEMENT_SET_NO":999,"REV_AT_EPOCH":63758,"BSTAR":0.0045408492,"MEAN_MOTION_DOT":0.00063892,"MEAN_MOTION_DDOT":0}]
